{
  "type": "FeatureCollection",
  "features": [
    {
      "type": "Feature",
      "properties": {
        "norad_id": 30663,
        "name": "FENGYUN 1C DEB",
        "group": "fengyun-1c-debris",
        "lat": -41.60496690737919,
        "lon": 71.73036531525916,
        "alt_km": 1030.069356772222,
        "timestamp": "2025-12-08T17:43:05.209088+00:00",
        "meta_object_name": "FENGYUN 1C DEB",
        "meta_object_id": "1999-025APV",
        "meta_epoch": "2025-12-05T12:25:41.665440",
        "meta_mean_motion": 13.23094732,
        "meta_eccentricity": 0.06475188,
        "meta_inclination": 99.3024,
        "meta_ra_of_asc_node": 257.2057,
        "meta_arg_of_pericenter": 154.1824,
        "meta_mean_anomaly": 209.3175,
        "meta_ephemeris_type": 0,
        "meta_classification_type": "U",
        "meta_norad_cat_id": 30663,
        "meta_element_set_no": 999,
        "meta_rev_at_epoch": 88952,
        "meta_bstar": 0.0022629214,
        "meta_mean_motion_dot": 2.911e-05,
        "meta_mean_motion_ddot": 0,
        "tle_line1": "1 30663U 99025APV 25339.51784335  .00002911  00000+0  22629-2 0  9996",
        "tle_line2": "2 30663  99.3024 257.2057 0647518 154.1824 209.3175 13.23094732889524"
      },
      "geometry": {
        "type": "Point",
        "coordinates": [
          71.73036531525916,
          -41.60496690737919
        ]
      }
    },
    {
      "type": "Feature",
      "properties": {
        "norad_id": 30665,
        "name": "FENGYUN 1C DEB",
        "group": "fengyun-1c-debris",
        "lat": -36.09524911226054,
        "lon": 127.4367323922211,
        "alt_km": 808.8933072807149,
        "timestamp": "2025-12-08T17:43:05.209099+00:00",
        "meta_object_name": "FENGYUN 1C DEB",
        "meta_object_id": "1999-025APX",
        "meta_epoch": "2025-12-07T09:09:01.611360",
        "meta_mean_motion": 14.12295731,
        "meta_eccentricity": 0.00675953,
        "meta_inclination": 99.2082,
        "meta_ra_of_asc_node": 312.8354,
        "meta_arg_of_pericenter": 217.8348,
        "meta_mean_anomaly": 303.1657,
        "meta_ephemeris_type": 0,
        "meta_classification_type": "U",
        "meta_norad_cat_id": 30665,
        "meta_element_set_no": 999,
        "meta_rev_at_epoch": 95894,
        "meta_bstar": 0.0027486992,
        "meta_mean_motion_dot": 5.125e-05,
        "meta_mean_motion_ddot": 0,
        "tle_line1": "1 30665U 99025APX 25341.38126865  .00005125  00000+0  27487-2 0  9991",
        "tle_line2": "2 30665  99.2082 312.8354 0067595 217.8348 303.1657 14.12295731958948"
      },
      "geometry": {
        "type": "Point",
        "coordinates": [
          127.4367323922211,
          -36.09524911226054
        ]
      }
    },
    {
      "type": "Feature",
      "properties": {
        "norad_id": 30666,
        "name": "FENGYUN 1C DEB",
        "group": "fengyun-1c-debris",
        "lat": 12.002361347055203,
        "lon": 148.37329759316913,
        "alt_km": 842.970836485335,
        "timestamp": "2025-12-08T17:43:05.209110+00:00",
        "meta_object_name": "FENGYUN 1C DEB",
        "meta_object_id": "1999-025APY",
        "meta_epoch": "2025-12-08T05:02:18.376224",
        "meta_mean_motion": 14.02551597,
        "meta_eccentricity": 0.00609547,
        "meta_inclination": 98.8225,
        "meta_ra_of_asc_node": 325.9695,
        "meta_arg_of_pericenter": 156.4581,
        "meta_mean_anomaly": 225.0162,
        "meta_ephemeris_type": 0,
        "meta_classification_type": "U",
        "meta_norad_cat_id": 30666,
        "meta_element_set_no": 999,
        "meta_rev_at_epoch": 96047,
        "meta_bstar": 0.00032269796,
        "meta_mean_motion_dot": 4.63e-06,
        "meta_mean_motion_ddot": 0,
        "tle_line1": "1 30666U 99025APY 25342.20993491  .00000463  00000+0  32270-3 0  9998",
        "tle_line2": "2 30666  98.8225 325.9695 0060954 156.4581 225.0162 14.02551597960473"
      },
      "geometry": {
        "type": "Point",
        "coordinates": [
          148.37329759316913,
          12.002361347055203
        ]
      }
    },
    {
      "type": "Feature",
      "properties": {
        "norad_id": 30668,
        "name": "FENGYUN 1C DEB",
        "group": "fengyun-1c-debris",
        "lat": -50.046810918041544,
        "lon": 66.79058563910262,
        "alt_km": 822.9847557884314,
        "timestamp": "2025-12-08T17:43:05.209120+00:00",
        "meta_object_name": "FENGYUN 1C DEB",
        "meta_object_id": "1999-025AQA",
        "meta_epoch": "2025-12-08T04:37:19.485696",
        "meta_mean_motion": 14.1228295,
        "meta_eccentricity": 0.00787086,
        "meta_inclination": 99.1314,
        "meta_ra_of_asc_node": 55.1655,
        "meta_arg_of_pericenter": 258.7977,
        "meta_mean_anomaly": 156.8728,
        "meta_ephemeris_type": 0,
        "meta_classification_type": "U",
        "meta_norad_cat_id": 30668,
        "meta_element_set_no": 999,
        "meta_rev_at_epoch": 95991,
        "meta_bstar": 0.0023525867,
        "meta_mean_motion_dot": 4.413e-05,
        "meta_mean_motion_ddot": 0,
        "tle_line1": "1 30668U 99025AQA 25342.19258664  .00004413  00000+0  23526-2 0  9996",
        "tle_line2": "2 30668  99.1314  55.1655 0078708 258.7977 156.8728 14.12282950959918"
      },
      "geometry": {
        "type": "Point",
        "coordinates": [
          66.79058563910262,
          -50.046810918041544
        ]
      }
    },
    {
      "type": "Feature",
      "properties": {
        "norad_id": 30669,
        "name": "FENGYUN 1C DEB",
        "group": "fengyun-1c-debris",
        "lat": 37.70403105513203,
        "lon": 106.3589496648771,
        "alt_km": 822.0477293948288,
        "timestamp": "2025-12-08T17:43:05.209131+00:00",
        "meta_object_name": "FENGYUN 1C DEB",
        "meta_object_id": "1999-025AQB",
        "meta_epoch": "2025-12-08T07:30:12.459744",
        "meta_mean_motion": 14.02701655,
        "meta_eccentricity": 0.01175708,
        "meta_inclination": 98.6341,
        "meta_ra_of_asc_node": 279.2104,
        "meta_arg_of_pericenter": 189.1347,
        "meta_mean_anomaly": 325.5078,
        "meta_ephemeris_type": 0,
        "meta_classification_type": "U",
        "meta_norad_cat_id": 30669,
        "meta_element_set_no": 999,
        "meta_rev_at_epoch": 95391,
        "meta_bstar": 0.0017670199,
        "meta_mean_motion_dot": 2.86e-05,
        "meta_mean_motion_ddot": 0,
        "tle_line1": "1 30669U 99025AQB 25342.31264421  .00002860  00000+0  17670-2 0  9996",
        "tle_line2": "2 30669  98.6341 279.2104 0117570 189.1347 325.5078 14.02701655953914"
      },
      "geometry": {
        "type": "Point",
        "coordinates": [
          106.3589496648771,
          37.70403105513203
        ]
      }
    },
    {
      "type": "Feature",
      "properties": {
        "norad_id": 30670,
        "name": "FENGYUN 1C DEB",
        "group": "fengyun-1c-debris",
        "lat": -56.94503737025376,
        "lon": -166.36967086004933,
        "alt_km": 873.1660391817968,
        "timestamp": "2025-12-08T17:43:05.209142+00:00",
        "meta_object_name": "FENGYUN 1C DEB",
        "meta_object_id": "1999-025AQC",
        "meta_epoch": "2025-12-08T01:36:41.230368",
        "meta_mean_motion": 14.15814508,
        "meta_eccentricity": 0.00399858,
        "meta_inclination": 98.7115,
        "meta_ra_of_asc_node": 26.6015,
        "meta_arg_of_pericenter": 82.6907,
        "meta_mean_anomaly": 336.3647,
        "meta_ephemeris_type": 0,
        "meta_classification_type": "U",
        "meta_norad_cat_id": 30670,
        "meta_element_set_no": 999,
        "meta_rev_at_epoch": 97086,
        "meta_bstar": 0.00013307804,
        "meta_mean_motion_dot": 2.21e-06,
        "meta_mean_motion_ddot": 0,
        "tle_line1": "1 30670U 99025AQC 25342.06714387  .00000221  00000+0  13308-3 0  9995",
        "tle_line2": "2 30670  98.7115  26.6015 0039985  82.6907 336.3647 14.15814508970864"
      },
      "geometry": {
        "type": "Point",
        "coordinates": [
          -166.36967086004933,
          -56.94503737025376
        ]
      }
    },
    {
      "type": "Feature",
      "properties": {
        "norad_id": 30671,
        "name": "FENGYUN 1C DEB",
        "group": "fengyun-1c-debris",
        "lat": 43.67415721364348,
        "lon": -123.61231582880639,
        "alt_km": 906.7205544826802,
        "timestamp": "2025-12-08T17:43:05.209153+00:00",
        "meta_object_name": "FENGYUN 1C DEB",
        "meta_object_id": "1999-025AQD",
        "meta_epoch": "2025-12-08T03:27:14.351904",
        "meta_mean_motion": 13.95439038,
        "meta_eccentricity": 0.01264276,
        "meta_inclination": 99.2526,
        "meta_ra_of_asc_node": 46.8377,
        "meta_arg_of_pericenter": 45.8929,
        "meta_mean_anomaly": 344.0872,
        "meta_ephemeris_type": 0,
        "meta_classification_type": "U",
        "meta_norad_cat_id": 30671,
        "meta_element_set_no": 999,
        "meta_rev_at_epoch": 95131,
        "meta_bstar": 0.0015328145,
        "meta_mean_motion_dot": 2.179e-05,
        "meta_mean_motion_ddot": 0,
        "tle_line1": "1 30671U 99025AQD 25342.14391611  .00002179  00000+0  15328-2 0  9993",
        "tle_line2": "2 30671  99.2526  46.8377 0126427  45.8929 344.0872 13.95439038951318"
      },
      "geometry": {
        "type": "Point",
        "coordinates": [
          -123.61231582880639,
          43.67415721364348
        ]
      }
    }
  ]
}